{
    "links": {
        "self": "http://www.neowsapp.com/rest/v1/neo/3826686?api_key=iIulBulltgU6a56xZRHN4H3l9WmuAYTsLGpBGhQ2"
    },
    "id": "3826686",
    "neo_reference_id": "3826686",
    "name": "(2018 PS10)",
    "designation": "2018 PS10",
    "nasa_jpl_url": "http://ssd.jpl.nasa.gov/sbdb.cgi?sstr=3826686",
    "absolute_magnitude_h": 23.9,
    "estimated_diameter": {
        "kilometers": {
            "estimated_diameter_min": 0.04411182,
            "estimated_diameter_max": 0.0986370281
        },
        "meters": {
            "estimated_diameter_min": 44.1118199997,
            "estimated_diameter_max": 98.6370281305
        },
        "miles": {
            "estimated_diameter_min": 0.0274098057,
            "estimated_diameter_max": 0.0612901888
        },
        "feet": {
            "estimated_diameter_min": 144.7238235278,
            "estimated_diameter_max": 323.6123073718
        }
    },
    "is_potentially_hazardous_asteroid": false,
    "close_approach_data": [
        {
            "close_approach_date": "2018-07-23",
            "close_approach_date_full": "2018-Jul-23 11:52",
            "epoch_date_close_approach": 1532346720000,
            "relative_velocity": {
                "kilometers_per_second": "4.8739949602",
                "kilometers_per_hour": "17546.3818565818",
                "miles_per_hour": "10902.6393263855"
            },
            "miss_distance": {
                "astronomical": "0.2110567679",
                "lunar": "82.1010827131",
                "kilometers": "31573642.926924373",
                "miles": "19618951.9718994274"
            },
            "orbiting_body": "Earth"
        }
    ],
    "orbital_data": {
        "orbit_id": "3",
        "orbit_determination_date": "2018-09-11 07:05:21",
        "first_observation_date": "2018-08-08",
        "last_observation_date": "2018-09-04",
        "data_arc_in_days": 27,
        "observations_used": 15,
        "orbit_uncertainty": "8",
        "minimum_orbit_intersection": ".183442",
        "jupiter_tisserand_invariant": "3.495",
        "epoch_osculation": "2458340.5",
        "eccentricity": ".4627879829426681",
        "semi_major_axis": "2.221382700111917",
        "inclination": "5.868531180498085",
        "ascending_node_longitude": "324.4117270434425",
        "orbital_period": "1209.298473965376",
        "perihelion_distance": "1.193353480983385",
        "perihelion_argument": "333.9050453568049",
        "aphelion_distance": "3.249411919240448",
        "perihelion_time": "2458315.003088972871",
        "mean_anomaly": "7.590258457590051",
        "mean_motion": ".2976932558424011",
        "equinox": "J2000",
        "orbit_class": {
            "orbit_class_type": "AMO",
            "orbit_class_description": "Near-Earth asteroid orbits similar to that of 1221 Amor",
            "orbit_class_range": "1.017 AU < q (perihelion) < 1.3 AU"
        }
    },
    "is_sentry_object": false
}